[
    {
        "Altitude(m)": 571549.2683284958,
        "Argument of Periapsis(deg)": 0.0,
        "Eccentricity": 0.0,
        "Inclination(deg)": 53.0,
        "Latitude(deg)": -52.38808932921122,
        "Longitude(deg)": 128.43690738991438,
        "Mean Anomaly(deg)": -81.81819999999996,
        "RAAN(deg)": 305.0,
        "Satellite Name": "Starlink Shell 1 1359",
        "Satellite Number": 1359,
        "Semi-Major Axis(m)": 6931778.249405717,
        "Time(s)": 0
    },
    {
        "Altitude(m)": 571502.6135946163,
        "Argument of Periapsis(deg)": 0.00034857847951123687,
        "Eccentricity": 0.0,
        "Inclination(deg)": 53.0,
        "Latitude(deg)": -52.268139154831765,
        "Longitude(deg)": 129.39606977437302,
        "Mean Anomaly(deg)": -81.19136879644329,
        "RAAN(deg)": 304.99948122992254,
        "Satellite Name": "Starlink Shell 1 1359",
        "Satellite Number": 1359,
        "Semi-Major Axis(m)": 6931778.249405717,
        "Time(s)": 10
    },
    {
        "Altitude(m)": 571452.6139651979,
        "Argument of Periapsis(deg)": 0.0006971569590224737,
        "Eccentricity": 0.0,
        "Inclination(deg)": 53.0,
        "Latitude(deg)": -52.13975983161505,
        "Longitude(deg)": 130.349668197644,
        "Mean Anomaly(deg)": -80.56453759288657,
        "RAAN(deg)": 304.9989624598451,
        "Satellite Name": "Starlink Shell 1 1359",
        "Satellite Number": 1359,
        "Semi-Major Axis(m)": 6931778.249405717,
        "Time(s)": 20
    },
    {
        "Altitude(m)": 571399.2893557424,
        "Argument of Periapsis(deg)": 0.0010457354385337105,
        "Eccentricity": 0.0,
        "Inclination(deg)": 53.0,
        "Latitude(deg)": -52.003037518913786,
        "Longitude(deg)": 131.2973881712302,
        "Mean Anomaly(deg)": -79.93770638932988,
        "RAAN(deg)": 304.9984436897676,
        "Satellite Name": "Starlink Shell 1 1359",
        "Satellite Number": 1359,
        "Semi-Major Axis(m)": 6931778.249405717,
        "Time(s)": 30
    },
    {
        "Altitude(m)": 571342.6610039403,
        "Argument of Periapsis(deg)": 0.0013943139180449475,
        "Eccentricity": 0.0,
        "Inclination(deg)": 53.0,
        "Latitude(deg)": -51.85806270959572,
        "Longitude(deg)": 132.23893065031407,
        "Mean Anomaly(deg)": -79.3108751857731,
        "RAAN(deg)": 304.9979249196901,
        "Satellite Name": "Starlink Shell 1 1359",
        "Satellite Number": 1359,
        "Semi-Major Axis(m)": 6931778.249405717,
        "Time(s)": 40
    },
    {
        "Altitude(m)": 571282.7514604484,
        "Argument of Periapsis(deg)": 0.0017428923975561844,
        "Eccentricity": 0.0,
        "Inclination(deg)": 53.0,
        "Latitude(deg)": -51.70492995799976,
        "Longitude(deg)": 133.17401144053807,
        "Mean Anomaly(deg)": -78.68404398221648,
        "RAAN(deg)": 304.9974061496127,
        "Satellite Name": "Starlink Shell 1 1359",
        "Satellite Number": 1359,
        "Semi-Major Axis(m)": 6931778.249405717,
        "Time(s)": 50
    },
    {
        "Altitude(m)": 571219.5845791328,
        "Argument of Periapsis(deg)": 0.002091470877067421,
        "Eccentricity": 0.0,
        "Inclination(deg)": 53.0,
        "Latitude(deg)": -51.54373760311774,
        "Longitude(deg)": 134.1023620329412,
        "Mean Anomaly(deg)": -78.0572127786598,
        "RAAN(deg)": 304.99688737953517,
        "Satellite Name": "Starlink Shell 1 1359",
        "Satellite Number": 1359,
        "Semi-Major Axis(m)": 6931778.249405717,
        "Time(s)": 60
    },
    {
        "Altitude(m)": 571153.1855067369,
        "Argument of Periapsis(deg)": 0.0024400493565786582,
        "Eccentricity": 0.0,
        "Inclination(deg)": 53.0,
        "Latitude(deg)": -51.37458748868698,
        "Longitude(deg)": 135.02373035582042,
        "Mean Anomaly(deg)": -77.43038157510293,
        "RAAN(deg)": 304.9963686094577,
        "Satellite Name": "Starlink Shell 1 1359",
        "Satellite Number": 1359,
        "Semi-Major Axis(m)": 6931778.249405717,
        "Time(s)": 70
    },
    {
        "Altitude(m)": 571083.580671971,
        "Argument of Periapsis(deg)": 0.002788627836089895,
        "Eccentricity": 0.0,
        "Inclination(deg)": 53.0,
        "Latitude(deg)": -51.19758468182745,
        "Longitude(deg)": 135.93787993289948,
        "Mean Anomaly(deg)": -76.8035503715463,
        "RAAN(deg)": 304.99584983938024,
        "Satellite Name": "Starlink Shell 1 1359",
        "Satellite Number": 1359,
        "Semi-Major Axis(m)": 6931778.249405717,
        "Time(s)": 80
    },
    {
        "Altitude(m)": 571010.7977740525,
        "Argument of Periapsis(deg)": 0.0031372063156011316,
        "Eccentricity": 0.0,
        "Inclination(deg)": 53.0,
        "Latitude(deg)": -51.01283719178896,
        "Longitude(deg)": 136.84459047642227,
        "Mean Anomaly(deg)": -76.17671916798962,
        "RAAN(deg)": 304.9953310693028,
        "Satellite Name": "Starlink Shell 1 1359",
        "Satellite Number": 1359,
        "Semi-Major Axis(m)": 6931778.249405717,
        "Time(s)": 90
    },
    {
        "Altitude(m)": 570934.8657706954,
        "Argument of Periapsis(deg)": 0.0034857847951123688,
        "Eccentricity": 0.0,
        "Inclination(deg)": 53.0,
        "Latitude(deg)": -50.82045569028477,
        "Longitude(deg)": 137.74365840572077,
        "Mean Anomaly(deg)": -75.54988796443284,
        "RAAN(deg)": 304.99481229922526,
        "Satellite Name": "Starlink Shell 1 1359",
        "Satellite Number": 1359,
        "Semi-Major Axis(m)": 6931778.249405717,
        "Time(s)": 100
    },
    {
        "Altitude(m)": 570855.814865535,
        "Argument of Periapsis(deg)": 0.003834363274623606,
        "Eccentricity": 0.0,
        "Inclination(deg)": 53.0,
        "Latitude(deg)": -50.620553234790904,
        "Longitude(deg)": 138.63489578228092,
        "Mean Anomaly(deg)": -74.9230567608761,
        "RAAN(deg)": 304.9942935291478,
        "Satellite Name": "Starlink Shell 1 1359",
        "Satellite Number": 1359,
        "Semi-Major Axis(m)": 6931778.249405717,
        "Time(s)": 110
    },
    {
        "Altitude(m)": 570773.6764950238,
        "Argument of Periapsis(deg)": 0.004182941754134842,
        "Eccentricity": 0.0,
        "Inclination(deg)": 53.0,
        "Latitude(deg)": -50.41324499609245,
        "Longitude(deg)": 139.51813069133314,
        "Mean Anomaly(deg)": -74.29622555731946,
        "RAAN(deg)": 304.99377475907033,
        "Satellite Name": "Starlink Shell 1 1359",
        "Satellite Number": 1359,
        "Semi-Major Axis(m)": 6931778.249405717,
        "Time(s)": 120
    },
    {
        "Altitude(m)": 570688.4833147709,
        "Argument of Periapsis(deg)": 0.004531520233646079,
        "Eccentricity": 0.0,
        "Inclination(deg)": 53.0,
        "Latitude(deg)": -50.19864799124473,
        "Longitude(deg)": 140.39320756168755,
        "Mean Anomaly(deg)": -73.66939435376275,
        "RAAN(deg)": 304.9932559889928,
        "Satellite Name": "Starlink Shell 1 1359",
        "Satellite Number": 1359,
        "Semi-Major Axis(m)": 6931778.249405717,
        "Time(s)": 130
    },
    {
        "Altitude(m)": 570600.269185351,
        "Argument of Periapsis(deg)": 0.0048800987131573164,
        "Eccentricity": 0.0,
        "Inclination(deg)": 53.0,
        "Latitude(deg)": -49.976880823002816,
        "Longitude(deg)": 141.25998591577098,
        "Mean Anomaly(deg)": -73.04256315020596,
        "RAAN(deg)": 304.9927372189154,
        "Satellite Name": "Starlink Shell 1 1359",
        "Satellite Number": 1359,
        "Semi-Major Axis(m)": 6931778.249405717,
        "Time(s)": 140
    },
    {
        "Altitude(m)": 570509.0691575912,
        "Argument of Periapsis(deg)": 0.005228677192668553,
        "Eccentricity": 0.0,
        "Inclination(deg)": 53.0,
        "Latitude(deg)": -49.74806342666279,
        "Longitude(deg)": 142.11834058059364,
        "Mean Anomaly(deg)": -72.41573194664926,
        "RAAN(deg)": 304.99221844883795,
        "Satellite Name": "Starlink Shell 1 1359",
        "Satellite Number": 1359,
        "Semi-Major Axis(m)": 6931778.249405717,
        "Time(s)": 150
    },
    {
        "Altitude(m)": 570414.9194573248,
        "Argument of Periapsis(deg)": 0.00557725567217979,
        "Eccentricity": 0.0,
        "Inclination(deg)": 53.0,
        "Latitude(deg)": -49.51231682513676,
        "Longitude(deg)": 142.96816185185082,
        "Mean Anomaly(deg)": -71.78890074309257,
        "RAAN(deg)": 304.9916996787604,
        "Satellite Name": "Starlink Shell 1 1359",
        "Satellite Number": 1359,
        "Semi-Major Axis(m)": 6931778.249405717,
        "Time(s)": 160
    },
    {
        "Altitude(m)": 570317.8574696206,
        "Argument of Periapsis(deg)": 0.0059258341516910265,
        "Eccentricity": 0.0,
        "Inclination(deg)": 53.0,
        "Latitude(deg)": -49.269762892968934,
        "Longitude(deg)": 143.80935410338412,
        "Mean Anomaly(deg)": -71.16206953953576,
        "RAAN(deg)": 304.991180908683,
        "Satellite Name": "Starlink Shell 1 1359",
        "Satellite Number": 1359,
        "Semi-Major Axis(m)": 6931778.249405717,
        "Time(s)": 170
    },
    {
        "Altitude(m)": 570217.921722525,
        "Argument of Periapsis(deg)": 0.006274412631202263,
        "Eccentricity": 0.0,
        "Inclination(deg)": 53.0,
        "Latitude(deg)": -49.02052412989249,
        "Longitude(deg)": 144.6418358728111,
        "Mean Anomaly(deg)": -70.53523833597909,
        "RAAN(deg)": 304.9906621386055,
        "Satellite Name": "Starlink Shell 1 1359",
        "Satellite Number": 1359,
        "Semi-Major Axis(m)": 6931778.249405717,
        "Time(s)": 180
    }
]